[
  {
    "OBJECT_NAME": "ZACUBE-1 (TSHEPISOSAT)",
    "OBJECT_ID": "2013-066B",
    "EPOCH": "2025-05-06T03:37:05.431584",
    "MEAN_MOTION": 14.96311996,
    "ECCENTRICITY": 0.0044992,
    "INCLINATION": 97.7767,
    "RA_OF_ASC_NODE": 83.3619,
    "ARG_OF_PERICENTER": 164.7235,
    "MEAN_ANOMALY": 195.5356,
    "EPHEMERIS_TYPE": 0,
    "CLASSIFICATION_TYPE": "U",
    "NORAD_CAT_ID": 39417,
    "ELEMENT_SET_NO": 999,
    "REV_AT_EPOCH": 61976,
    "BSTAR": 0.0005265,
    "MEAN_MOTION_DOT": 6.017e-05,
    "MEAN_MOTION_DDOT": 0
  },
  {
    "OBJECT_NAME": "GOMX-1",
    "OBJECT_ID": "2013-066Q",
    "EPOCH": "2025-05-06T02:56:30.223392",
    "MEAN_MOTION": 14.67513169,
    "ECCENTRICITY": 0.0131481,
    "INCLINATION": 97.688,
    "RA_OF_ASC_NODE": 346.8966,
    "ARG_OF_PERICENTER": 303.1503,
    "MEAN_ANOMALY": 55.7144,
    "EPHEMERIS_TYPE": 0,
    "CLASSIFICATION_TYPE": "U",
    "NORAD_CAT_ID": 39430,
    "ELEMENT_SET_NO": 999,
    "REV_AT_EPOCH": 61035,
    "BSTAR": 0.00035975,
    "MEAN_MOTION_DOT": 2.27e-05,
    "MEAN_MOTION_DDOT": 0
  },
  {
    "OBJECT_NAME": "CUBEBUG-2 (LO-74)",
    "OBJECT_ID": "2013-066AA",
    "EPOCH": "2025-05-05T19:40:07.025664",
    "MEAN_MOTION": 14.89685648,
    "ECCENTRICITY": 0.0060751,
    "INCLINATION": 97.847,
    "RA_OF_ASC_NODE": 70.6313,
    "ARG_OF_PERICENTER": 295.7009,
    "MEAN_ANOMALY": 63.7943,
    "EPHEMERIS_TYPE": 0,
    "CLASSIFICATION_TYPE": "U",
    "NORAD_CAT_ID": 39440,
    "ELEMENT_SET_NO": 999,
    "REV_AT_EPOCH": 61626,
    "BSTAR": 0.00052723,
    "MEAN_MOTION_DOT": 5.164e-05,
    "MEAN_MOTION_DDOT": 0
  },
  {
    "OBJECT_NAME": "FUNCUBE-1 (AO-73)",
    "OBJECT_ID": "2013-066AE",
    "EPOCH": "2025-05-05T20:09:28.762272",
    "MEAN_MOTION": 15.0179961,
    "ECCENTRICITY": 0.0042182,
    "INCLINATION": 97.7784,
    "RA_OF_ASC_NODE": 87.6368,
    "ARG_OF_PERICENTER": 142.5322,
    "MEAN_ANOMALY": 217.8856,
    "EPHEMERIS_TYPE": 0,
    "CLASSIFICATION_TYPE": "U",
    "NORAD_CAT_ID": 39444,
    "ELEMENT_SET_NO": 999,
    "REV_AT_EPOCH": 61837,
    "BSTAR": 0.0007466,
    "MEAN_MOTION_DOT": 9.864e-05,
    "MEAN_MOTION_DDOT": 0
  },
  {
    "OBJECT_NAME": "UWE-3",
    "OBJECT_ID": "2013-066AG",
    "EPOCH": "2025-05-05T17:56:07.126080",
    "MEAN_MOTION": 14.92636308,
    "ECCENTRICITY": 0.00518,
    "INCLINATION": 97.8214,
    "RA_OF_ASC_NODE": 76.8779,
    "ARG_OF_PERICENTER": 233.5164,
    "MEAN_ANOMALY": 126.1277,
    "EPHEMERIS_TYPE": 0,
    "CLASSIFICATION_TYPE": "U",
    "NORAD_CAT_ID": 39446,
    "ELEMENT_SET_NO": 999,
    "REV_AT_EPOCH": 61671,
    "BSTAR": 0.00057212,
    "MEAN_MOTION_DOT": 5.989e-05,
    "MEAN_MOTION_DDOT": 0
  },
  {
    "OBJECT_NAME": "UNISAT-6",
    "OBJECT_ID": "2014-033C",
    "EPOCH": "2025-05-06T04:26:57.104160",
    "MEAN_MOTION": 14.85006543,
    "ECCENTRICITY": 0.0047038,
    "INCLINATION": 97.7384,
    "RA_OF_ASC_NODE": 283.3488,
    "ARG_OF_PERICENTER": 329.1778,
    "MEAN_ANOMALY": 30.6677,
    "EPHEMERIS_TYPE": 0,
    "CLASSIFICATION_TYPE": "U",
    "NORAD_CAT_ID": 40012,
    "ELEMENT_SET_NO": 999,
    "REV_AT_EPOCH": 58569,
    "BSTAR": 0.0004769,
    "MEAN_MOTION_DOT": 4.095e-05,
    "MEAN_MOTION_DDOT": 0
  },
  {
    "OBJECT_NAME": "DUCHIFAT-1",
    "OBJECT_ID": "2014-033M",
    "EPOCH": "2025-05-05T16:22:41.842272",
    "MEAN_MOTION": 15.27046167,
    "ECCENTRICITY": 0.0011285,
    "INCLINATION": 98.0979,
    "RA_OF_ASC_NODE": 137.0278,
    "ARG_OF_PERICENTER": 84.129,
    "MEAN_ANOMALY": 276.1233,
    "EPHEMERIS_TYPE": 0,
    "CLASSIFICATION_TYPE": "U",
    "NORAD_CAT_ID": 40021,
    "ELEMENT_SET_NO": 999,
    "REV_AT_EPOCH": 59299,
    "BSTAR": 0.0010718,
    "MEAN_MOTION_DOT": 0.00028492,
    "MEAN_MOTION_DDOT": 0
  },
  {
    "OBJECT_NAME": "QB50P1",
    "OBJECT_ID": "2014-033R",
    "EPOCH": "2025-05-05T19:46:01.848864",
    "MEAN_MOTION": 15.09929541,
    "ECCENTRICITY": 0.0010937,
    "INCLINATION": 98.0817,
    "RA_OF_ASC_NODE": 106.5035,
    "ARG_OF_PERICENTER": 162.9107,
    "MEAN_ANOMALY": 197.2491,
    "EPHEMERIS_TYPE": 0,
    "CLASSIFICATION_TYPE": "U",
    "NORAD_CAT_ID": 40025,
    "ELEMENT_SET_NO": 999,
    "REV_AT_EPOCH": 59139,
    "BSTAR": 0.00069774,
    "MEAN_MOTION_DOT": 0.00011269,
    "MEAN_MOTION_DDOT": 0
  },
  {
    "OBJECT_NAME": "LILACSAT-2",
    "OBJECT_ID": "2015-049K",
    "EPOCH": "2025-05-06T01:45:31.431744",
    "MEAN_MOTION": 15.38102299,
    "ECCENTRICITY": 0.0007302,
    "INCLINATION": 97.5089,
    "RA_OF_ASC_NODE": 145.6037,
    "ARG_OF_PERICENTER": 285.9251,
    "MEAN_ANOMALY": 74.1188,
    "EPHEMERIS_TYPE": 0,
    "CLASSIFICATION_TYPE": "U",
    "NORAD_CAT_ID": 40908,
    "ELEMENT_SET_NO": 999,
    "REV_AT_EPOCH": 53292,
    "BSTAR": 0.00040429,
    "MEAN_MOTION_DOT": 0.00015102,
    "MEAN_MOTION_DDOT": 0
  },
  {
    "OBJECT_NAME": "FOX-1A (AO-85)",
    "OBJECT_ID": "2015-058D",
    "EPOCH": "2025-05-05T22:01:41.305152",
    "MEAN_MOTION": 14.87824588,
    "ECCENTRICITY": 0.0165723,
    "INCLINATION": 64.7744,
    "RA_OF_ASC_NODE": 101.647,
    "ARG_OF_PERICENTER": 206.6148,
    "MEAN_ANOMALY": 152.6387,
    "EPHEMERIS_TYPE": 0,
    "CLASSIFICATION_TYPE": "U",
    "NORAD_CAT_ID": 40967,
    "ELEMENT_SET_NO": 999,
    "REV_AT_EPOCH": 5291,
    "BSTAR": 0.00028513,
    "MEAN_MOTION_DOT": 3.188e-05,
    "MEAN_MOTION_DDOT": 0
  },
  {
    "OBJECT_NAME": "CAS-2T & KS-1Q",
    "OBJECT_ID": "2016-066G",
    "EPOCH": "2025-05-05T19:31:20.485920",
    "MEAN_MOTION": 14.43390111,
    "ECCENTRICITY": 0.0345214,
    "INCLINATION": 98.4207,
    "RA_OF_ASC_NODE": 200.5758,
    "ARG_OF_PERICENTER": 283.7407,
    "MEAN_ANOMALY": 72.5586,
    "EPHEMERIS_TYPE": 0,
    "CLASSIFICATION_TYPE": "U",
    "NORAD_CAT_ID": 41847,
    "ELEMENT_SET_NO": 999,
    "REV_AT_EPOCH": 44600,
    "BSTAR": 0.0001689,
    "MEAN_MOTION_DOT": 1.112e-05,
    "MEAN_MOTION_DDOT": 0
  },
  {
    "OBJECT_NAME": "ZHUHAI-1 02 (CAS-4B)",
    "OBJECT_ID": "2017-034B",
    "EPOCH": "2025-05-06T04:13:23.680992",
    "MEAN_MOTION": 15.59082044,
    "ECCENTRICITY": 0.0018293,
    "INCLINATION": 43.0074,
    "RA_OF_ASC_NODE": 166.2791,
    "ARG_OF_PERICENTER": 47.1382,
    "MEAN_ANOMALY": 313.1015,
    "EPHEMERIS_TYPE": 0,
    "CLASSIFICATION_TYPE": "U",
    "NORAD_CAT_ID": 42759,
    "ELEMENT_SET_NO": 999,
    "REV_AT_EPOCH": 43722,
    "BSTAR": 0.00075798,
    "MEAN_MOTION_DOT": 0.00061348,
    "MEAN_MOTION_DDOT": 0
  },
  {
    "OBJECT_NAME": "ZHUHAI-1 01 (CAS-4A)",
    "OBJECT_ID": "2017-034D",
    "EPOCH": "2025-05-06T04:04:43.762080",
    "MEAN_MOTION": 15.60073375,
    "ECCENTRICITY": 0.001947,
    "INCLINATION": 43.0109,
    "RA_OF_ASC_NODE": 163.8015,
    "ARG_OF_PERICENTER": 51.9021,
    "MEAN_ANOMALY": 308.3595,
    "EPHEMERIS_TYPE": 0,
    "CLASSIFICATION_TYPE": "U",
    "NORAD_CAT_ID": 42761,
    "ELEMENT_SET_NO": 999,
    "REV_AT_EPOCH": 43724,
    "BSTAR": 0.00078092,
    "MEAN_MOTION_DOT": 0.00065778,
    "MEAN_MOTION_DDOT": 0
  },
  {
    "OBJECT_NAME": "RADFXSAT (FOX-1B)",
    "OBJECT_ID": "2017-073E",
    "EPOCH": "2025-05-05T14:35:15.114048",
    "MEAN_MOTION": 15.04186402,
    "ECCENTRICITY": 0.0172753,
    "INCLINATION": 97.529,
    "RA_OF_ASC_NODE": 357.2697,
    "ARG_OF_PERICENTER": 285.885,
    "MEAN_ANOMALY": 72.3396,
    "EPHEMERIS_TYPE": 0,
    "CLASSIFICATION_TYPE": "U",
    "NORAD_CAT_ID": 43017,
    "ELEMENT_SET_NO": 999,
    "REV_AT_EPOCH": 40395,
    "BSTAR": 0.00047938,
    "MEAN_MOTION_DOT": 9.211e-05,
    "MEAN_MOTION_DDOT": 0
  }
]