ZACUBE-1 (TSHEPISOSAT)  
1 39417U 13066B   25126.15075731  .00006017  00000+0  52650-3 0  9999
2 39417  97.7767  83.3619 0044992 164.7235 195.5356 14.96311996619767
GOMX-1                  
1 39430U 13066Q   25126.12257203  .00002270  00000+0  35975-3 0  9995
2 39430  97.6880 346.8966 0131481 303.1503  55.7144 14.67513169610358
CUBEBUG-2 (LO-74)       
1 39440U 13066AA  25125.81952576  .00005164  00000+0  52723-3 0  9991
2 39440  97.8470  70.6313 0060751 295.7009  63.7943 14.89685648616260
FUNCUBE-1 (AO-73)       
1 39444U 13066AE  25125.83991623  .00009864  00000+0  74660-3 0  9998
2 39444  97.7784  87.6368 0042182 142.5322 217.8856 15.01799610618373
UWE-3                   
1 39446U 13066AG  25125.74730470  .00005989  00000+0  57212-3 0  9999
2 39446  97.8214  76.8779 0051800 233.5164 126.1277 14.92636308616710
UNISAT-6                
1 40012U 14033C   25126.18538315  .00004095  00000+0  47690-3 0  9994
2 40012  97.7384 283.3488 0047038 329.1778  30.6677 14.85006543585690
DUCHIFAT-1              
1 40021U 14033M   25125.68242873  .00028492  00000+0  10718-2 0  9996
2 40021  98.0979 137.0278 0011285  84.1290 276.1233 15.27046167592997
QB50P1                  
1 40025U 14033R   25125.82363251  .00011269  00000+0  69774-3 0  9991
2 40025  98.0817 106.5035 0010937 162.9107 197.2491 15.09929541591397
LILACSAT-2              
1 40908U 15049K   25126.07328046  .00015102  00000+0  40429-3 0  9996
2 40908  97.5089 145.6037 0007302 285.9251  74.1188 15.38102299532921
FOX-1A (AO-85)          
1 40967U 15058D   25125.91783918  .00003188  00000+0  28513-3 0  9997
2 40967  64.7744 101.6470 0165723 206.6148 152.6387 14.87824588 52914
CAS-2T & KS-1Q          
1 41847U 16066G   25125.81343155  .00001112  00000+0  16890-3 0  9999
2 41847  98.4207 200.5758 0345214 283.7407  72.5586 14.43390111446007
ZHUHAI-1 02 (CAS-4B)    
1 42759U 17034B   25126.17596853  .00061348  00000+0  75798-3 0  9992
2 42759  43.0074 166.2791 0018293  47.1382 313.1015 15.59082044437227
ZHUHAI-1 01 (CAS-4A)    
1 42761U 17034D   25126.16995095  .00065778  00000+0  78092-3 0  9996
2 42761  43.0109 163.8015 0019470  51.9021 308.3595 15.60073375437242
RADFXSAT (FOX-1B)       
1 43017U 17073E   25125.60781382  .00009211  00000+0  47938-3 0  9999
2 43017  97.5290 357.2697 0172753 285.8850  72.3396 15.04186402403951
